LEMUR-1                 
1 40044U 14033AL  24360.32243252  .00005964  00000+0  75220-3 0  9993
2 40044  97.7155 154.8248 0052960  44.4781 316.0665 14.81308845565577
LEMUR-2-GREENBERG       
1 42837U 17042N   24360.50375392  .00020351  00000+0  11847-2 0  9990
2 42837  97.3593 181.1399 0014319  94.1749 266.1118 15.11970116406474
LEMUR-2-ANDIS           
1 42838U 17042P   24360.44030515  .00024439  00000+0  14234-2 0  9993
2 42838  97.3564 180.7054 0015255 100.0688 260.2265 15.11902061406455
LEMUR-2-MONSON          
1 42839U 17042Q   24360.47603934  .00022284  00000+0  13693-2 0  9992
2 42839  97.3896 181.1505 0010764  82.1480 278.0971 15.10027310406387
LEMUR-2-FURIAUS         
1 42840U 17042R   24360.49359522  .00022499  00000+0  13707-2 0  9991
2 42840  97.3602 180.5323 0012146 141.8338 218.3754 15.10324088406384
LEMUR-2-PETERG          
1 42841U 17042S   24360.45953765  .00025195  00000+0  14843-2 0  9995
2 42841  97.3882 183.2101 0006545  76.8094 283.3866 15.11562401406471
LEMUR-2-DEMBITZ         
1 42842U 17042T   24360.51398723  .00022729  00000+0  13690-2 0  9999
2 42842  97.3727 182.5440 0010837 100.8677 259.3773 15.10751041406493
LEMUR-2-ZACHARY         
1 42845U 17042W   24360.47283088  .00026809  00000+0  13678-2 0  9993
2 42845  97.3689 184.4289 0006984 129.1947 230.9907 15.16679745406767
LEMUR-2-JIN-LUEN        
1 43182U 18014C   24360.45933034  .00035681  00000+0  14808-2 0  9993
2 43182  97.5717 263.6378 0012946  56.0055 304.2410 15.23685643377750
LEMUR-2-URAMCHANSOL     
1 43183U 18014D   24360.14558653  .00089786  00000+0  24825-2 0  9995
2 43183  97.5648 266.8662 0012231  48.7514 311.4781 15.36607658377935
LEMUR-2-KADI            
1 43184U 18014E   24360.48593449  .00033202  00000+0  13505-2 0  9990
2 43184  97.5409 262.8245 0011034  37.2078 322.9922 15.24400475377795
LEMUR-2-THENICKMOLO     
1 43185U 18014F   24360.57023268  .00056471  00000+0  18945-2 0  9994
2 43185  97.5730 265.5842 0008204  38.8677 321.3151 15.30654900377904
LEMUR-2-CHRISTINAHOLT   
1 43882U 18111G   24360.51361364  .00262794  00000+0  34963-2 0  9997
2 43882  97.6064 279.1405 0009637  63.9109 296.3136 15.57226475327095
LEMUR-2-TINYKEV         
1 43883U 18111H   24359.85360927  .00989183  00000+0  35275-2 0  9992
2 43883  97.5618 280.5033 0011671  97.8756 262.3840 15.86500920327264
LEMUR-2-REMY-COLTON     
1 43884U 18111J   24360.59350455  .00086643  00000+0  19877-2 0  9990
2 43884  97.6233 278.7986 0003771  72.6775 287.4884 15.42399966327106
LEMUR-2-GUSTAVO         
1 43885U 18111K   24360.22890377  .00103515  00000+0  24227-2 0  9996
2 43885  97.6175 277.0692 0011055  36.7776 323.4227 15.41674740328966
LEMUR-2-ZO              
1 43886U 18111L   24360.21139336  .00077951  00000+0  19035-2 0  9992
2 43886  97.6099 276.1811 0010465  40.0545 320.1471 15.40503461328966
LEMUR-2-NATALIEMURRAY   
1 43887U 18111M   24360.21915112  .00117049  00000+0  27688-2 0  9993
2 43887  97.6233 278.2597 0005580  25.7733 334.3790 15.41342327329013
LEMUR-2-SARAHBETTYBOO   
1 43888U 18111N   24360.31554042  .00126157  00000+0  22653-2 0  9993
2 43888  97.6530 283.2898 0013143  63.0678 297.1913 15.49338937329115
LEMUR-2-DAISY-HARPER    
1 43889U 18111P   24360.54164541  .00202847  00000+0  31841-2 0  9990
2 43889  97.6409 284.0883 0013623  82.0791 278.2006 15.52848807329247
LEMUR-2-NICHOL          
1 46503U 20068T   24360.52730560  .00262855  00000+0  14485-2 0  9998
2 46503  97.7904 344.7557 0005088  40.2626 319.9016 15.78945395234590
LEMUR-2-AMANDA-SVANTE   
1 48269U 21034B   24360.16120803  .00022779  00000+0  14951-2 0  9993
2 48269  97.6407  63.2212 0003193 346.3023  13.8118 15.07648789199182
LEMUR-2-SPECIAL-K       
1 48273U 21034F   24360.19486772  .00035562  00000+0  21370-2 0  9998
2 48273  97.6290  63.8256 0001872  54.8016 305.3388 15.10783036199251
LEMUR-2-EMBRIONOVIS     
1 56970U 23084AQ  24360.29678990  .00013217  00000+0  51860-3 0  9995
2 56970  97.5643 120.3390 0012670  66.2817 293.9749 15.25790627 85209
LEMUR-2-MANO            
1 57390U 23100E   24360.44138760  .00037858  00000+0  19989-2 0  9996
2 57390  99.4661 249.2192 0012086  34.8744 325.3271 15.15360112 79135
LEMUR-2-DEVERILL-M-T    
1 57391U 23100F   24360.47920720  .00029269  00000+0  17190-2 0  9994
2 57391  99.4463 247.4778 0012549  35.3786 324.8268 15.11612560 79102
LEMUR-2-BASS            
1 58259U 23174D   24360.49240372  .00021259  00000+0  83822-3 0  9996
2 58259  97.4353  72.5417 0009353 299.3218  60.7085 15.25554564 62772
LEMUR-2-DILIGHTFUL      
1 58260U 23174E   24360.46373919  .00089890  00000+0  21581-2 0  9997
2 58260  97.4375  75.7614 0007898 273.9185  86.1158 15.40992077 62961
LEMUR-2-GOOD-VIBES      
1 58263U 23174H   24360.19766726  .00070558  00000+0  17109-2 0  9994
2 58263  97.4260  75.1361 0006960 284.2219  75.8254 15.40780654 62926
LEMUR-2-SANITA-VETRA    
1 58267U 23174M   24360.18149715  .00078702  00000+0  18748-2 0  9999
2 58267  97.4315  75.1590 0006745 277.8721  82.1759 15.41284732 62920
LEMUR-2-MARAPAMASM      
1 58332U 23174CE  24360.55871928  .00100450  00000+0  16483-2 0  9991
2 58332  97.4269  78.4047 0005811 238.8177 121.2506 15.52061303 63171
LEMUR-2-THE-CLEANER     
1 58333U 23174CF  24360.48616810  .00089814  00000+0  19583-2 0  9995
2 58333  97.4311  76.4377 0007058 240.2409 119.8137 15.43889073 63034
LEMUR-2-JK0903EM1407    
1 58336U 23174CJ  24360.47369792  .00024259  00000+0  86982-3 0  9991
2 58336  97.4349  73.9000 0007150 252.5893 107.4565 15.28690692 62867
LEMUR-2-MJR092620       
1 58340U 23174CN  24360.19584745  .00026024  00000+0  91406-3 0  9991
2 58340  97.4410  74.1459 0008286 250.4163 109.6183 15.29342069 62830
